[{"OBJECT_NAME":"STARLINK-5025","OBJECT_ID":"2022-119AL","EPOCH":"2026-03-09T21:17:37.234464","MEAN_MOTION":15.08837327,"ECCENTRICITY":0.00011602,"INCLINATION":53.2172,"RA_OF_ASC_NODE":313.3021,"ARG_OF_PERICENTER":73.7672,"MEAN_ANOMALY":286.3447,"EPHEMERIS_TYPE":0,"CLASSIFICATION_TYPE":"U","NORAD_CAT_ID":53920,"ELEMENT_SET_NO":999,"REV_AT_EPOCH":19185,"BSTAR":5.8024836e-5,"MEAN_MOTION_DOT":6.36e-6,"MEAN_MOTION_DDOT":0},{"OBJECT_NAME":"FENGYUN 1C DEB","OBJECT_ID":"1999-025CRT","EPOCH":"2026-03-08T05:25:55.615296","MEAN_MOTION":14.72591337,"ECCENTRICITY":0.01689255,"INCLINATION":99.0682,"RA_OF_ASC_NODE":62.2268,"ARG_OF_PERICENTER":58.082,"MEAN_ANOMALY":303.669,"EPHEMERIS_TYPE":0,"CLASSIFICATION_TYPE":"U","NORAD_CAT_ID":32125,"ELEMENT_SET_NO":999,"REV_AT_EPOCH":71780,"BSTAR":0.003714293,"MEAN_MOTION_DOT":0.00029682,"MEAN_MOTION_DDOT":0}]
